[{"OBJECT_NAME":"GSAT0206 (GALILEO 10)","OBJECT_ID":"2015-045B","EPOCH":"2026-03-02T16:46:29.944416","MEAN_MOTION":1.7047364,"ECCENTRICITY":0.00038321,"INCLINATION":54.9811,"RA_OF_ASC_NODE":224.5416,"ARG_OF_PERICENTER":50.0037,"MEAN_ANOMALY":309.9714,"EPHEMERIS_TYPE":0,"CLASSIFICATION_TYPE":"U","NORAD_CAT_ID":40890,"ELEMENT_SET_NO":999,"REV_AT_EPOCH":6522,"BSTAR":0,"MEAN_MOTION_DOT":1.0e-7,"MEAN_MOTION_DDOT":0},{"OBJECT_NAME":"GPS BIIF-11 (PRN 10)","OBJECT_ID":"2015-062A","EPOCH":"2026-03-05T13:45:33.866496","MEAN_MOTION":2.00567091,"ECCENTRICITY":0.0111452,"INCLINATION":56.8937,"RA_OF_ASC_NODE":34.8029,"ARG_OF_PERICENTER":231.5057,"MEAN_ANOMALY":127.4773,"EPHEMERIS_TYPE":0,"CLASSIFICATION_TYPE":"U","NORAD_CAT_ID":41019,"ELEMENT_SET_NO":999,"REV_AT_EPOCH":7575,"BSTAR":0,"MEAN_MOTION_DOT":-7.9e-7,"MEAN_MOTION_DDOT":0},{"OBJECT_NAME":"GSAT-15 (GAGAN/PRN 139)","OBJECT_ID":"2015-065A","EPOCH":"2026-03-05T16:09:14.264928","MEAN_MOTION":1.00270716,"ECCENTRICITY":0.0001175,"INCLINATION":0.0865,"RA_OF_ASC_NODE":269.7496,"ARG_OF_PERICENTER":105.4832,"MEAN_ANOMALY":123.9496,"EPHEMERIS_TYPE":0,"CLASSIFICATION_TYPE":"U","NORAD_CAT_ID":41028,"ELEMENT_SET_NO":999,"REV_AT_EPOCH":3776,"BSTAR":0,"MEAN_MOTION_DOT":-2.64e-6,"MEAN_MOTION_DDOT":0},{"OBJECT_NAME":"GSAT0209 (GALILEO 12)","OBJECT_ID":"2015-079A","EPOCH":"2026-03-05T19:12:03.208032","MEAN_MOTION":1.70474567,"ECCENTRICITY":0.0004738,"INCLINATION":55.7602,"RA_OF_ASC_NODE":104.0969,"ARG_OF_PERICENTER":323.5937,"MEAN_ANOMALY":36.4535,"EPHEMERIS_TYPE":0,"CLASSIFICATION_TYPE":"U","NORAD_CAT_ID":41174,"ELEMENT_SET_NO":999,"REV_AT_EPOCH":6301,"BSTAR":0,"MEAN_MOTION_DOT":8.0e-8,"MEAN_MOTION_DDOT":0},{"OBJECT_NAME":"GSAT0208 (GALILEO 11)","OBJECT_ID":"2015-079B","EPOCH":"2026-03-03T02:05:47.447808","MEAN_MOTION":1.70474318,"ECCENTRICITY":0.00041639,"INCLINATION":55.7569,"RA_OF_ASC_NODE":104.1685,"ARG_OF_PERICENTER":323.7694,"MEAN_ANOMALY":36.289,"EPHEMERIS_TYPE":0,"CLASSIFICATION_TYPE":"U","NORAD_CAT_ID":41175,"ELEMENT_SET_NO":999,"REV_AT_EPOCH":6338,"BSTAR":0,"MEAN_MOTION_DOT":1.5e-7,"MEAN_MOTION_DDOT":0},{"OBJECT_NAME":"IRNSS-1E","OBJECT_ID":"2016-003A","EPOCH":"2026-03-05T09:23:51.751680","MEAN_MOTION":1.00274399,"ECCENTRICITY":0.001769,"INCLINATION":33.0093,"RA_OF_ASC_NODE":61.244,"ARG_OF_PERICENTER":189.2433,"MEAN_ANOMALY":165.4139,"EPHEMERIS_TYPE":0,"CLASSIFICATION_TYPE":"U","NORAD_CAT_ID":41241,"ELEMENT_SET_NO":999,"REV_AT_EPOCH":3703,"BSTAR":0,"MEAN_MOTION_DOT":-2.93e-6,"MEAN_MOTION_DDOT":0},{"OBJECT_NAME":"GPS BIIF-12 (PRN 32)","OBJECT_ID":"2016-007A","EPOCH":"2026-03-05T03:50:35.213856","MEAN_MOTION":2.00556727,"ECCENTRICITY":0.00954531,"INCLINATION":55.4561,"RA_OF_ASC_NODE":93.5827,"ARG_OF_PERICENTER":246.0235,"MEAN_ANOMALY":113.0379,"EPHEMERIS_TYPE":0,"CLASSIFICATION_TYPE":"U","NORAD_CAT_ID":41328,"ELEMENT_SET_NO":999,"REV_AT_EPOCH":7375,"BSTAR":0,"MEAN_MOTION_DOT":4.0e-8,"MEAN_MOTION_DDOT":0},{"OBJECT_NAME":"COSMOS 2514 (751)","OBJECT_ID":"2016-008A","EPOCH":"2026-03-05T02:37:40.234944","MEAN_MOTION":2.131027,"ECCENTRICITY":0.000912,"INCLINATION":65.0822,"RA_OF_ASC_NODE":316.581,"ARG_OF_PERICENTER":209.1015,"MEAN_ANOMALY":150.9085,"EPHEMERIS_TYPE":0,"CLASSIFICATION_TYPE":"U","NORAD_CAT_ID":41330,"ELEMENT_SET_NO":999,"REV_AT_EPOCH":7840,"BSTAR":0,"MEAN_MOTION_DOT":-5.4e-7,"MEAN_MOTION_DDOT":0},{"OBJECT_NAME":"IRNSS-1F","OBJECT_ID":"2016-015A","EPOCH":"2026-03-05T17:34:28.591104","MEAN_MOTION":1.00271948,"ECCENTRICITY":0.0019143,"INCLINATION":5.0876,"RA_OF_ASC_NODE":99.2377,"ARG_OF_PERICENTER":188.1493,"MEAN_ANOMALY":172.1005,"EPHEMERIS_TYPE":0,"CLASSIFICATION_TYPE":"U","NORAD_CAT_ID":41384,"ELEMENT_SET_NO":999,"REV_AT_EPOCH":3663,"BSTAR":0,"MEAN_MOTION_DOT":1.53e-6,"MEAN_MOTION_DDOT":0},{"OBJECT_NAME":"BEIDOU-2 IGSO-6 (C13)","OBJECT_ID":"2016-021A","EPOCH":"2026-03-05T19:20:15.355392","MEAN_MOTION":1.00278377,"ECCENTRICITY":0.0059799,"INCLINATION":60.0886,"RA_OF_ASC_NODE":39.0639,"ARG_OF_PERICENTER":233.3994,"MEAN_ANOMALY":276.8689,"EPHEMERIS_TYPE":0,"CLASSIFICATION_TYPE":"U","NORAD_CAT_ID":41434,"ELEMENT_SET_NO":999,"REV_AT_EPOCH":3644,"BSTAR":0,"MEAN_MOTION_DOT":-1.51e-6,"MEAN_MOTION_DDOT":0},{"OBJECT_NAME":"IRNSS-1G","OBJECT_ID":"2016-027A","EPOCH":"2026-03-05T12:54:02.979936","MEAN_MOTION":1.00268174,"ECCENTRICITY":0.0005319,"INCLINATION":4.9379,"RA_OF_ASC_NODE":99.9841,"ARG_OF_PERICENTER":314.2008,"MEAN_ANOMALY":72.1199,"EPHEMERIS_TYPE":0,"CLASSIFICATION_TYPE":"U","NORAD_CAT_ID":41469,"ELEMENT_SET_NO":999,"REV_AT_EPOCH":3614,"BSTAR":0,"MEAN_MOTION_DOT":-3.41e-6,"MEAN_MOTION_DDOT":0},{"OBJECT_NAME":"GSAT0211 (GALILEO 14)","OBJECT_ID":"2016-030A","EPOCH":"2026-03-04T23:18:18.658656","MEAN_MOTION":1.70473864,"ECCENTRICITY":0.0003586,"INCLINATION":55.1315,"RA_OF_ASC_NODE":224.5579,"ARG_OF_PERICENTER":25.2753,"MEAN_ANOMALY":334.6794,"EPHEMERIS_TYPE":0,"CLASSIFICATION_TYPE":"U","NORAD_CAT_ID":41549,"ELEMENT_SET_NO":999,"REV_AT_EPOCH":6089,"BSTAR":0,"MEAN_MOTION_DOT":1.4e-7,"MEAN_MOTION_DDOT":0},{"OBJECT_NAME":"GSAT0210 (GALILEO 13)","OBJECT_ID":"2016-030B","EPOCH":"2026-03-05T05:28:47.437248","MEAN_MOTION":1.70473971,"ECCENTRICITY":0.0001188,"INCLINATION":55.1285,"RA_OF_ASC_NODE":224.5491,"ARG_OF_PERICENTER":194.8212,"MEAN_ANOMALY":165.1129,"EPHEMERIS_TYPE":0,"CLASSIFICATION_TYPE":"U","NORAD_CAT_ID":41550,"ELEMENT_SET_NO":999,"REV_AT_EPOCH":6089,"BSTAR":0,"MEAN_MOTION_DOT":1.5e-7,"MEAN_MOTION_DDOT":0},{"OBJECT_NAME":"BEIDOU-2 G7 (C03)","OBJECT_ID":"2016-037A","EPOCH":"2026-03-05T21:21:52.010784","MEAN_MOTION":1.00266892,"ECCENTRICITY":0.0007747,"INCLINATION":1.4654,"RA_OF_ASC_NODE":68.2281,"ARG_OF_PERICENTER":342.2792,"MEAN_ANOMALY":184.0549,"EPHEMERIS_TYPE":0,"CLASSIFICATION_TYPE":"U","NORAD_CAT_ID":41586,"ELEMENT_SET_NO":999,"REV_AT_EPOCH":585,"BSTAR":0,"MEAN_MOTION_DOT":-3.58e-6,"MEAN_MOTION_DDOT":0},{"OBJECT_NAME":"EUTELSAT 117 WEST B (WAAS/PRN 131)","OBJECT_ID":"2016-038B","EPOCH":"2026-03-05T15:09:12.521952","MEAN_MOTION":1.00274096,"ECCENTRICITY":3.26e-5,"INCLINATION":0.0191,"RA_OF_ASC_NODE":305.945,"ARG_OF_PERICENTER":291.7627,"MEAN_ANOMALY":35.9665,"EPHEMERIS_TYPE":0,"CLASSIFICATION_TYPE":"U","NORAD_CAT_ID":41589,"ELEMENT_SET_NO":999,"REV_AT_EPOCH":3562,"BSTAR":0,"MEAN_MOTION_DOT":-1.9e-7,"MEAN_MOTION_DDOT":0},{"OBJECT_NAME":"GSAT0207 (GALILEO 15)","OBJECT_ID":"2016-069A","EPOCH":"2026-02-28T05:27:34.324704","MEAN_MOTION":1.70474383,"ECCENTRICITY":0.00050316,"INCLINATION":55.4267,"RA_OF_ASC_NODE":104.1007,"ARG_OF_PERICENTER":309.1503,"MEAN_ANOMALY":50.8842,"EPHEMERIS_TYPE":0,"CLASSIFICATION_TYPE":"U","NORAD_CAT_ID":41859,"ELEMENT_SET_NO":999,"REV_AT_EPOCH":5754,"BSTAR":0,"MEAN_MOTION_DOT":8.0e-8,"MEAN_MOTION_DDOT":0},{"OBJECT_NAME":"GSAT0212 (GALILEO 16)","OBJECT_ID":"2016-069B","EPOCH":"2026-03-03T00:20:06.105120","MEAN_MOTION":1.70474657,"ECCENTRICITY":0.0003622,"INCLINATION":55.4261,"RA_OF_ASC_NODE":104.0186,"ARG_OF_PERICENTER":335.7588,"MEAN_ANOMALY":24.3106,"EPHEMERIS_TYPE":0,"CLASSIFICATION_TYPE":"U","NORAD_CAT_ID":41860,"ELEMENT_SET_NO":999,"REV_AT_EPOCH":5784,"BSTAR":0,"MEAN_MOTION_DOT":1.4e-7,"MEAN_MOTION_DDOT":0}]
